{
  "norad_id": 68685,
  "name": "STARLINK-36278",
  "history": [
    {
      "epoch": "2026-04-22T14:13:53.001984Z",
      "apogee_km": 339.77792580738424,
      "perigee_km": 337.24521196502883,
      "latitude_deg": -6.101449129615044e-05,
      "longitude_deg": -80.44047069101684,
      "height_km": 340.4235462598116,
      "semi_major_axis_km": 6716.648568886207,
      "eccentricity": 0.00018854,
      "inclination_deg": 97.2836,
      "raan_deg": 343.6827,
      "arg_perigee_deg": 353.8212,
      "mean_anomaly_deg": 6.303,
      "mean_motion_rev_day": 15.7715299
    },
    {
      "epoch": "2026-04-24T15:00:59.368896Z",
      "apogee_km": 344.3630997388782,
      "perigee_km": 343.6505524933091,
      "latitude_deg": -4.1344339850516045e-05,
      "longitude_deg": -92.08693826348495,
      "height_km": 347.21969349027034,
      "semi_major_axis_km": 6722.143826116093,
      "eccentricity": 5.3e-05,
      "inclination_deg": 97.2846,
      "raan_deg": 345.8163,
      "arg_perigee_deg": 97.3065,
      "mean_anomaly_deg": 262.826,
      "mean_motion_rev_day": 15.75219435
    },
    {
      "epoch": "2026-04-24T15:00:59.369760Z",
      "apogee_km": 344.3630997388782,
      "perigee_km": 343.6505524933091,
      "latitude_deg": -4.13443394444611e-05,
      "longitude_deg": -92.08694187334338,
      "height_km": 347.21969349027233,
      "semi_major_axis_km": 6722.143826116093,
      "eccentricity": 5.3e-05,
      "inclination_deg": 97.2846,
      "raan_deg": 345.8163,
      "arg_perigee_deg": 97.3065,
      "mean_anomaly_deg": 262.826,
      "mean_motion_rev_day": 15.75219435
    },
    {
      "epoch": "2026-04-26T22:00:00.999936Z",
      "apogee_km": 345.1327303213129,
      "perigee_km": 343.2416060863143,
      "latitude_deg": 22.619777489444303,
      "longitude_deg": 160.2665547828118,
      "height_km": 346.7749670614485,
      "semi_major_axis_km": 6722.324168203813,
      "eccentricity": 0.00014066,
      "inclination_deg": 97.2847,
      "raan_deg": 348.2207,
      "arg_perigee_deg": 88.9921,
      "mean_anomaly_deg": 293.8184,
      "mean_motion_rev_day": 15.75156047
    },
    {
      "epoch": "2026-04-27T11:37:35.043168Z",
      "apogee_km": 344.90747335902506,
      "perigee_km": 343.04813640399516,
      "latitude_deg": 4.17731270082797e-05,
      "longitude_deg": -41.054099931341,
      "height_km": 346.91233020433054,
      "semi_major_axis_km": 6722.11480488151,
      "eccentricity": 0.0001383,
      "inclination_deg": 97.2844,
      "raan_deg": 348.8155,
      "arg_perigee_deg": 75.5702,
      "mean_anomaly_deg": 284.5717,
      "mean_motion_rev_day": 15.75229636
    },
    {
      "epoch": "2026-04-28T21:10:07.989888Z",
      "apogee_km": 344.96910946953267,
      "perigee_km": 342.73875287856845,
      "latitude_deg": 3.554305734200292e-05,
      "longitude_deg": 175.89728299081656,
      "height_km": 347.2392448405403,
      "semi_major_axis_km": 6721.99093117405,
      "eccentricity": 0.0001659,
      "inclination_deg": 97.2846,
      "raan_deg": 350.2817,
      "arg_perigee_deg": 101.3488,
      "mean_anomaly_deg": 258.7964,
      "mean_motion_rev_day": 15.75273179
    },
    {
      "epoch": "2026-04-29T18:30:50.986080Z",
      "apogee_km": 344.79768607279857,
      "perigee_km": 343.03785213424726,
      "latitude_deg": -1.5577831018353906e-05,
      "longitude_deg": -144.22548039662811,
      "height_km": 347.10130100276297,
      "semi_major_axis_km": 6722.054769103523,
      "eccentricity": 0.0001309,
      "inclination_deg": 97.2841,
      "raan_deg": 351.2147,
      "arg_perigee_deg": 91.1191,
      "mean_anomaly_deg": 269.0224,
      "mean_motion_rev_day": 15.75250739
    },
    {
      "epoch": "2026-04-30T14:20:05.189856Z",
      "apogee_km": 344.6438367662113,
      "perigee_km": 343.4683940780478,
      "latitude_deg": -2.726600854353191e-06,
      "longitude_deg": -81.48226826858735,
      "height_km": 346.86166882353933,
      "semi_major_axis_km": 6722.193115422129,
      "eccentricity": 8.743e-05,
      "inclination_deg": 97.2834,
      "raan_deg": 352.0811,
      "arg_perigee_deg": 52.0219,
      "mean_anomaly_deg": 308.1125,
      "mean_motion_rev_day": 15.7520211
    },
    {
      "epoch": "2026-05-02T10:33:00.484416Z",
      "apogee_km": 344.87991571360726,
      "perigee_km": 343.18727315792785,
      "latitude_deg": 8.859599541276486e-05,
      "longitude_deg": -24.595836683904412,
      "height_km": 347.2573476588885,
      "semi_major_axis_km": 6722.170594435767,
      "eccentricity": 0.0001259,
      "inclination_deg": 97.2841,
      "raan_deg": 354.0138,
      "arg_perigee_deg": 93.8876,
      "mean_anomaly_deg": 266.2534,
      "mean_motion_rev_day": 15.75210026
    },
    {
      "epoch": "2026-05-03T17:02:35.509344Z",
      "apogee_km": 344.7307566511381,
      "perigee_km": 343.1712322364265,
      "latitude_deg": 5.6846855226596334e-06,
      "longitude_deg": -121.91127230795357,
      "height_km": 347.1569312445181,
      "semi_major_axis_km": 6722.087994443782,
      "eccentricity": 0.000116,
      "inclination_deg": 97.2835,
      "raan_deg": 355.3466,
      "arg_perigee_deg": 92.8918,
      "mean_anomaly_deg": 267.248,
      "mean_motion_rev_day": 15.7523906
    }
  ]
}